FENGYUN 1C DEB          
1 31723U 99025CDW 17345.09388891  .00000651  00000-0  47283-3 0  9996
2 31723  97.8262 103.8328 0144394 198.3245 161.2687 13.94245240533549
